{
  "type": "FeatureCollection",
  "name": "ursidae-schematic-ranges",
  "note": "Schematic teaching polygons for the atlas — not IUCN occupancy.",
  "features": [
    {
      "type": "Feature",
      "properties": { "slug": "black-bear", "name": "American Black Bear", "accent": "#c9842a" },
      "geometry": {
        "type": "MultiPolygon",
        "coordinates": [
          [[ [-168, 54], [-141, 59], [-130, 56], [-130, 48], [-124, 48], [-124, 41], [-123, 38], [-118, 36], [-110, 40], [-105, 45], [-96, 49], [-88, 48], [-83, 46], [-80, 43], [-76, 44], [-70, 45], [-66, 44], [-64, 47], [-56, 48], [-55, 52], [-60, 55], [-70, 58], [-80, 56], [-90, 57], [-100, 60], [-110, 62], [-125, 61], [-140, 61], [-150, 61], [-165, 58], [-168, 54] ]],
          [[ [-95.5, 43.5], [-90.5, 43.8], [-89.2, 46.5], [-89.5, 48.6], [-93.5, 49.4], [-97.2, 49], [-96.8, 46.2], [-95.5, 43.5] ]],
          [[ [-88, 30], [-81, 25.5], [-80, 27], [-81.5, 31], [-84, 34], [-88, 34], [-88, 30] ]],
          [[ [-85, 34], [-78, 35], [-74, 41], [-72, 44], [-80, 42], [-85, 38], [-85, 34] ]]
        ]
      }
    },
    {
      "type": "Feature",
      "properties": { "slug": "grizzly-bear", "name": "Grizzly / Brown Bear", "accent": "#d4a017" },
      "geometry": {
        "type": "MultiPolygon",
        "coordinates": [
          [[ [-168, 54], [-158, 58], [-150, 60], [-141, 60], [-130, 58], [-125, 52], [-135, 58], [-152, 57], [-162, 55], [-168, 54] ]],
          [[ [-165, 63], [-150, 68], [-140, 69], [-125, 68], [-115, 64], [-120, 58], [-135, 60], [-150, 61], [-165, 63] ]],
          [[ [-116, 49], [-110, 45], [-109, 44], [-110.2, 43.6], [-111.5, 44.8], [-115, 47.5], [-116, 49] ]],
          [[ [12, 68], [25, 71], [40, 68], [60, 66], [90, 68], [140, 70], [170, 66], [160, 55], [140, 52], [120, 50], [100, 48], [80, 52], [60, 55], [40, 58], [28, 60], [20, 62], [12, 68] ]],
          [[ [10, 46], [22, 49], [28, 47], [25, 42], [15, 43], [10, 46] ]]
        ]
      }
    },
    {
      "type": "Feature",
      "properties": { "slug": "polar-bear", "name": "Polar Bear", "accent": "#7eb6d6" },
      "geometry": {
        "type": "MultiPolygon",
        "coordinates": [
          [[ [-170, 66], [-140, 70], [-110, 68], [-90, 70], [-70, 72], [-50, 68], [-20, 70], [10, 76], [20, 78], [30, 76], [50, 72], [80, 72], [120, 72], [160, 70], [180, 68], [170, 66], [140, 68], [100, 70], [60, 70], [20, 72], [-20, 68], [-60, 68], [-100, 68], [-140, 68], [-170, 66] ]],
          [[ [-168, 71], [-156, 72], [-140, 71], [-140, 69], [-156, 69], [-168, 70], [-168, 71] ]]
        ]
      }
    },
    {
      "type": "Feature",
      "properties": { "slug": "panda", "name": "Giant Panda", "accent": "#e8e8e8" },
      "geometry": {
        "type": "Polygon",
        "coordinates": [[ [102.2, 28.6], [104.8, 28.8], [108.4, 32.2], [107.2, 34.4], [104.6, 34.2], [102.6, 32.6], [101.8, 30.2], [102.2, 28.6] ]]
      }
    },
    {
      "type": "Feature",
      "properties": { "slug": "spectacled-bear", "name": "Andean Spectacled Bear", "accent": "#e6c07b" },
      "geometry": {
        "type": "Polygon",
        "coordinates": [[ [-78.5, 11.2], [-72.8, 8.5], [-73.5, 2], [-76.2, -5], [-78.8, -13], [-70.5, -16.5], [-64.8, -21], [-67.5, -22.2], [-72, -17], [-79.5, -8], [-80.2, -2], [-79.2, 6], [-78.5, 11.2] ]]
      }
    },
    {
      "type": "Feature",
      "properties": { "slug": "sloth-bear", "name": "Sloth Bear", "accent": "#c45c26" },
      "geometry": {
        "type": "MultiPolygon",
        "coordinates": [
          [[ [70.5, 22], [73, 26], [77, 28.5], [84, 27], [88, 26.5], [87, 22], [84, 18], [80, 13], [77, 10], [74, 12], [72.5, 16], [70.5, 22] ]],
          [[ [79.6, 9.8], [81.9, 8.6], [81.8, 6.1], [80.0, 5.9], [79.6, 9.8] ]]
        ]
      }
    },
    {
      "type": "Feature",
      "properties": { "slug": "sun-bear", "name": "Sun Bear", "accent": "#e2b84a" },
      "geometry": {
        "type": "MultiPolygon",
        "coordinates": [
          [[ [94, 16], [98, 20], [102, 19], [105, 15], [104, 8], [100, 6], [97, 8], [94, 12], [94, 16] ]],
          [[ [109.5, 1.2], [118.5, 7.2], [119.2, 5], [117, 1], [116, -3], [110.5, -2.5], [109.5, 1.2] ]],
          [[ [95.2, 5.6], [104.2, 6], [105.8, 2.2], [104, -3], [102.2, -5.8], [97.5, -5.5], [95.2, 0], [95.2, 5.6] ]]
        ]
      }
    },
    {
      "type": "Feature",
      "properties": { "slug": "asiatic-black-bear", "name": "Asiatic Black Bear", "accent": "#f2efe6" },
      "geometry": {
        "type": "MultiPolygon",
        "coordinates": [
          [[ [70, 34], [76, 36], [85, 30], [95, 28], [104, 32], [112, 35], [122, 42], [134, 46], [140, 48], [135, 43], [128, 40], [120, 32], [110, 26], [98, 25], [88, 26], [78, 28], [72, 32], [70, 34] ]],
          [[ [130.5, 31.5], [141.5, 41.5], [140.8, 38], [138, 34.5], [133, 33.2], [130.5, 31.5] ]]
        ]
      }
    }
  ]
}
